0 BREEZE-M DEB
1 38567U 08011N   13286.43257197 -.00000014  00000-0  00000+0 0  2478
2 38567 049.1618 236.7888 6226703 200.9293 330.6899 02.94748406 28173
0 BREEZE-M DEB
1 38567U 08011N   13286.74383472 -.00000020  00000-0  00000+0 0  2486
2 38567 049.1638 236.6977 6227306 201.0242 300.9596 02.94742863 28185
0 BREEZE-M DEB
1 38567U 08011N   13292.21792075 -.00000062  00000-0  00000+0 0  2495
2 38567 049.1469 235.0938 6223208 202.3643 349.4718 02.94712941 28349
0 BREEZE-M DEB
1 38567U 08011N   13293.23586243 -.00000052  00000-0  00000+0 0  2507
2 38567 049.1442 234.7973 6222509 202.6135 349.5880 02.94710485 28372
